{
"type": "FeatureCollection",
"name": "DFD_Fire_Station_Locations",
"crs": { "type": "name", "properties": { "name": "urn:ogc:def:crs:OGC:1.3:CRS84" } },
"features": [
{ "type": "Feature", "properties": { "FID": 1, "Firehouse": "ENGINE 01", "Lat": -83.05408151, "Long": 42.337875176499999, "FH_Short": "E-1", "Address": "111 W Montcalm Street, Detroit, Michigan, 48201", "Battalion": "01" }, "geometry": { "type": "Point", "coordinates": [ -83.054081509553995, 42.337875176498201 ] } },
{ "type": "Feature", "properties": { "FID": 2, "Firehouse": "ENGINE 17", "Lat": -83.073588522500003, "Long": 42.364789486399999, "FH_Short": "E-17", "Address": "6100 Second Avenue, Detroit, Michigan, 48202", "Battalion": "01" }, "geometry": { "type": "Point", "coordinates": [ -83.073588522392399, 42.364789486845403 ] } },
{ "type": "Feature", "properties": { "FID": 3, "Firehouse": "ENGINE 23", "Lat": -83.036356632899995, "Long": 42.375531735000003, "FH_Short": "E-23", "Address": "1818 E Grand Boulevard, Detroit, Michigan, 48211", "Battalion": "06" }, "geometry": { "type": "Point", "coordinates": [ -83.036356632852304, 42.375531734901699 ] } },
{ "type": "Feature", "properties": { "FID": 4, "Firehouse": "ENGINE 27", "Lat": -83.093352677799999, "Long": 42.3113641431, "FH_Short": "E-27", "Address": "4700 W Fort Street, Detroit, Michigan, 48209", "Battalion": "07" }, "geometry": { "type": "Point", "coordinates": [ -83.093352677484106, 42.311364142840901 ] } },
{ "type": "Feature", "properties": { "FID": 6, "Firehouse": "ENGINE 30", "Lat": -83.170242509399998, "Long": 42.412713686499998, "FH_Short": "E-30", "Address": "16543 Meyers Road, Detroit, Michigan, 48235", "Battalion": "04" }, "geometry": { "type": "Point", "coordinates": [ -83.170242509084503, 42.412713686887201 ] } },
{ "type": "Feature", "properties": { "FID": 7, "Firehouse": "ENGINE 31", "Lat": -83.110940988600007, "Long": 42.348401053300002, "FH_Short": "E-31", "Address": "1697 W Grand Boulevard, Detroit, Michigan, 48208", "Battalion": "05" }, "geometry": { "type": "Point", "coordinates": [ -83.110940988535702, 42.348401053066198 ] } },
{ "type": "Feature", "properties": { "FID": 8, "Firehouse": "ENGINE 32", "Lat": -82.966740726899999, "Long": 42.368212929000002, "FH_Short": "E-32", "Address": "11740 E Jefferson Avenue, Detroit, Michigan, 48214", "Battalion": "06" }, "geometry": { "type": "Point", "coordinates": [ -82.966740726603206, 42.368212928883601 ] } },
{ "type": "Feature", "properties": { "FID": 9, "Firehouse": "ENGINE 33", "Lat": -83.126851445, "Long": 42.300477573400002, "FH_Short": "E-33", "Address": "1041 Lawndale Street, Detroit, Michigan, 48209", "Battalion": "07" }, "geometry": { "type": "Point", "coordinates": [ -83.126851445237904, 42.3004775733814 ] } },
{ "type": "Feature", "properties": { "FID": 10, "Firehouse": "ENGINE 34", "Lat": -83.132059610200002, "Long": 42.346458562599999, "FH_Short": "E-34", "Address": "6345 Livernois Avenue, Detroit, Michigan, 48210", "Battalion": "02" }, "geometry": { "type": "Point", "coordinates": [ -83.132059609863106, 42.346458562412799 ] } },
{ "type": "Feature", "properties": { "FID": 11, "Firehouse": "ENGINE 35", "Lat": -83.080867396100004, "Long": 42.3853576347, "FH_Short": "E-35", "Address": "111 Kenilworth Street, Detroit, Michigan, 48202", "Battalion": "05" }, "geometry": { "type": "Point", "coordinates": [ -83.080867395813598, 42.385357634946999 ] } },
{ "type": "Feature", "properties": { "FID": 12, "Firehouse": "ENGINE 37", "Lat": -83.127579864599994, "Long": 42.3175579356, "FH_Short": "E-37", "Address": "2820 Central Street, Detroit, Michigan, 48209", "Battalion": "07" }, "geometry": { "type": "Point", "coordinates": [ -83.127579864618994, 42.317557935650299 ] } },
{ "type": "Feature", "properties": { "FID": 13, "Firehouse": "ENGINE 39", "Lat": -83.100485136800003, "Long": 42.372241514800002, "FH_Short": "E-39", "Address": "8700 14th Street, Detroit, Michigan, 48206", "Battalion": "05" }, "geometry": { "type": "Point", "coordinates": [ -83.100485136779596, 42.372241514834101 ] } },
{ "type": "Feature", "properties": { "FID": 14, "Firehouse": "ENGINE 40", "Lat": -83.133833788199993, "Long": 42.393438009299999, "FH_Short": "E-40", "Address": "13939 Dexter Avenue, Detroit, Michigan, 48238", "Battalion": "08" }, "geometry": { "type": "Point", "coordinates": [ -83.133833787898894, 42.3934380093567 ] } },
{ "type": "Feature", "properties": { "FID": 15, "Firehouse": "ENGINE 41", "Lat": -83.003243784700004, "Long": 42.379930874700001, "FH_Short": "E-41", "Address": "5000 Rohns Street, Detroit, Michigan, 48213", "Battalion": "06" }, "geometry": { "type": "Point", "coordinates": [ -83.003243784872694, 42.3799308748101 ] } },
{ "type": "Feature", "properties": { "FID": 16, "Firehouse": "ENGINE 42", "Lat": -83.139356891999995, "Long": 42.3668065321, "FH_Short": "E-42", "Address": "6324 W Chicago Avenue, Detroit, Michigan, 48204", "Battalion": "02" }, "geometry": { "type": "Point", "coordinates": [ -83.139356892406596, 42.366806532195803 ] } },
{ "type": "Feature", "properties": { "FID": 17, "Firehouse": "ENGINE 44", "Lat": -83.103127974100005, "Long": 42.432000991700001, "FH_Short": "E-44", "Address": "35 W 7 Mile Road, Detroit, Michigan, 48203", "Battalion": "08" }, "geometry": { "type": "Point", "coordinates": [ -83.103127974476394, 42.432000991752403 ] } },
{ "type": "Feature", "properties": { "FID": 18, "Firehouse": "ENGINE 46", "Lat": -83.003699561999994, "Long": 42.399111910800002, "FH_Short": "E-46", "Address": "10101 Knodell Street, Detroit, Michigan, 48213", "Battalion": "03" }, "geometry": { "type": "Point", "coordinates": [ -83.003699562185005, 42.399111910386402 ] } },
{ "type": "Feature", "properties": { "FID": 19, "Firehouse": "ENGINE 48", "Lat": -83.158819611300004, "Long": 42.273014875400001, "FH_Short": "E-48", "Address": "2300 S Fort Street, Detroit, Michigan, 48217", "Battalion": "07" }, "geometry": { "type": "Point", "coordinates": [ -83.158819610936206, 42.273014875336301 ] } },
{ "type": "Feature", "properties": { "FID": 20, "Firehouse": "ENGINE 50", "Lat": -82.985892653400001, "Long": 42.420673925899997, "FH_Short": "E-50", "Address": "12985 Houston Whittier Street, Detroit, Michigan, 48205", "Battalion": "03" }, "geometry": { "type": "Point", "coordinates": [ -82.985892653822901, 42.420673926260697 ] } },
{ "type": "Feature", "properties": { "FID": 21, "Firehouse": "ENGINE 51", "Lat": -83.140790496299999, "Long": 42.425038601600001, "FH_Short": "E-51", "Address": "18236 Livernois Avenue, Detroit, Michigan, 48221", "Battalion": "08" }, "geometry": { "type": "Point", "coordinates": [ -83.140790496284396, 42.425038601450403 ] } },
{ "type": "Feature", "properties": { "FID": 22, "Firehouse": "ENGINE 52", "Lat": -82.956324426099997, "Long": 42.396976221199999, "FH_Short": "E-52", "Address": "5029 Manistique Street, Detroit, Michigan, 48224", "Battalion": "06" }, "geometry": { "type": "Point", "coordinates": [ -82.956324426131303, 42.396976221075803 ] } },
{ "type": "Feature", "properties": { "FID": 23, "Firehouse": "ENGINE 53", "Lat": -83.199116090100006, "Long": 42.401108129299999, "FH_Short": "E-53", "Address": "15127 Greenfield Road, Detroit, Michigan, 48227", "Battalion": "04" }, "geometry": { "type": "Point", "coordinates": [ -83.199116090535099, 42.401108129236803 ] } },
{ "type": "Feature", "properties": { "FID": 24, "Firehouse": "ENGINE 54", "Lat": -83.249313507099998, "Long": 42.4134980189, "FH_Short": "E-54", "Address": "16825 Trinity Street, Detroit, Michigan, 48219", "Battalion": "04" }, "geometry": { "type": "Point", "coordinates": [ -83.249313506912799, 42.413498018918503 ] } },
{ "type": "Feature", "properties": { "FID": 25, "Firehouse": "ENGINE 55", "Lat": -83.217387457399994, "Long": 42.358146935500002, "FH_Short": "E-55", "Address": "18140 Joy Road, Detroit, Michigan, 48228", "Battalion": "02" }, "geometry": { "type": "Point", "coordinates": [ -83.217387457365206, 42.358146935932403 ] } },
{ "type": "Feature", "properties": { "FID": 26, "Firehouse": "ENGINE 56", "Lat": -83.063223326, "Long": 42.429959693699999, "FH_Short": "E-56", "Address": "18601 Ryan Road, Detroit, Michigan, 48234", "Battalion": "08" }, "geometry": { "type": "Point", "coordinates": [ -83.063223325895805, 42.429959693485102 ] } },
{ "type": "Feature", "properties": { "FID": 27, "Firehouse": "ENGINE 57", "Lat": -83.246281648999997, "Long": 42.387028214399997, "FH_Short": "E-57", "Address": "13960 Burt Road, Detroit, Michigan, 48223", "Battalion": "02" }, "geometry": { "type": "Point", "coordinates": [ -83.246281648579199, 42.387028214680399 ] } },
{ "type": "Feature", "properties": { "FID": 28, "Firehouse": "ENGINE 58", "Lat": -82.9546739946, "Long": 42.417313677400003, "FH_Short": "E-58", "Address": "10801 Whittier Avenue, Detroit, Michigan, 48224", "Battalion": "03" }, "geometry": { "type": "Point", "coordinates": [ -82.954673994808999, 42.417313677784101 ] } },
{ "type": "Feature", "properties": { "FID": 29, "Firehouse": "ENGINE 59", "Lat": -83.218200224300006, "Long": 42.423077794100003, "FH_Short": "E-59", "Address": "17800 Curtis Street, Detroit, Michigan, 48235", "Battalion": "04" }, "geometry": { "type": "Point", "coordinates": [ -83.218200224160995, 42.423077794304803 ] } },
{ "type": "Feature", "properties": { "FID": 30, "Firehouse": "ENGINE 06", "Lat": -83.041983980699996, "Long": 42.3501900853, "FH_Short": "E-6", "Address": "3050 Russell Street, Detroit, Michigan, 48207", "Battalion": "01" }, "geometry": { "type": "Point", "coordinates": [ -83.041983980476303, 42.350190085204297 ] } },
{ "type": "Feature", "properties": { "FID": 31, "Firehouse": "ENGINE 60", "Lat": -83.005254336500002, "Long": 42.440256909399999, "FH_Short": "E-60", "Address": "19701 Hoover Street, Detroit, Michigan, 48205", "Battalion": "03" }, "geometry": { "type": "Point", "coordinates": [ -83.005254336218599, 42.440256909329001 ] } },
{ "type": "Feature", "properties": { "FID": 32, "Firehouse": "ENGINE 09", "Lat": -83.013138238799996, "Long": 42.347145681400001, "FH_Short": "E-9", "Address": "3737 E Lafayette Street, Detroit, Michigan, 48207", "Battalion": "01" }, "geometry": { "type": "Point", "coordinates": [ -83.013138238438898, 42.3471456813282 ] } },
{ "type": "Feature", "properties": { "FID": 33, "Firehouse": "FIREBOAT", "Lat": -83.079991757900004, "Long": 42.314236545999997, "FH_Short": "FB", "Address": "40 24th Street, Detroit, Michigan, 48216", "Battalion": "07" }, "geometry": { "type": "Point", "coordinates": [ -83.079991758313, 42.314236545979803 ] } },
{ "type": "Feature", "properties": { "FID": 34, "Firehouse": "LADDER 14", "Lat": -82.992296552599996, "Long": 42.362748511200003, "FH_Short": "L-14", "Address": "2200 Crane Street, Detroit, Michigan, 48214", "Battalion": "06" }, "geometry": { "type": "Point", "coordinates": [ -82.992296552543806, 42.362748511434702 ] } },
{ "type": "Feature", "properties": { "FID": 35, "Firehouse": "LADDER 19", "Lat": -82.994013172899997, "Long": 42.389480642899997, "FH_Short": "L-19", "Address": "10645 Shoemaker Street, Detroit, Michigan, 48213", "Battalion": "03" }, "geometry": { "type": "Point", "coordinates": [ -82.994013173069405, 42.389480642517697 ] } },
{ "type": "Feature", "properties": { "FID": 36, "Firehouse": "LADDER 20", "Lat": -83.063608466100007, "Long": 42.348894346500003, "FH_Short": "L-20", "Address": "433 W Alexandrine Street, Detroit, Michigan, 48201", "Battalion": "01" }, "geometry": { "type": "Point", "coordinates": [ -83.063608465957898, 42.348894346496898 ] } },
{ "type": "Feature", "properties": { "FID": 37, "Firehouse": "LADDER 22", "Lat": -83.133757420699993, "Long": 42.338569012699999, "FH_Short": "L-22", "Address": "6830 McGraw Avenue, Detroit, Michigan, 48210", "Battalion": "02" }, "geometry": { "type": "Point", "coordinates": [ -83.133757421068097, 42.338569012450002 ] } },
{ "type": "Feature", "properties": { "FID": 38, "Firehouse": "LADDER 30", "Lat": -83.038754639700002, "Long": 42.422687730100002, "FH_Short": "L-30", "Address": "17475 Mount Elliott Street, Detroit, Michigan, 48212", "Battalion": "08" }, "geometry": { "type": "Point", "coordinates": [ -83.038754640014602, 42.422687730454498 ] } },
{ "type": "Feature", "properties": { "FID": 40, "Firehouse": "RTC", "Lat": -83.017891477399999, "Long": 42.404374262099999, "FH_Short": "RTC", "Address": "10200 Erwin Avenue, Detroit, Michigan, 48234", "Battalion": "03" }, "geometry": { "type": "Point", "coordinates": [ -83.017891477409705, 42.404374261862799 ] } },
{ "type": "Feature", "properties": { "FID": 41, "Firehouse": "27 hf 7 Lad 8", "Lat": null, "Long": null, "FH_Short": null, "Address": null, "Battalion": null }, "geometry": { "type": "Point", "coordinates": [ -83.124996375371197, 42.299963229478202 ] } }
]
}
